NORAD_CAT_ID,OBJECT_NAME,OBJECT_TYPE,EPOCH,MEAN_MOTION,ECCENTRICITY,INCLINATION,RA_OF_ASC_NODE,ARG_OF_PERICENTER,MEAN_ANOMALY,BSTAR,MEAN_MOTION_DOT,MEAN_MOTION_DDOT,TLE_LINE0,TLE_LINE1,TLE_LINE2,SEMIMAJOR_AXIS,PERIOD,APOGEE,PERIGEE,DECAYED
49428.0,STARLINK-3121,PAYLOAD,2022-07-05 05:54:54,15.0884324,0.0003319,53.2162,140.0806,55.1028,305.0276,7.6278e-05,9.26e-06,0.0,0 STARLINK-3121,1 49428U 21104W   22186.24646107  .00000926  00000-0  76278-4 0  9995,2 49428  53.2162 140.0806 0003319  55.1028 305.0276 15.08843240 36898,6917.87,95.437,542.0319999999998,537.439,0.0
49428.0,STARLINK-3121,PAYLOAD,2022-07-05 09:05:40,15.08842281,0.0003287,53.2162,139.4858,52.7673,307.3619,0.00011672,1.57e-05,0.0,0 STARLINK-3121,1 49428U 21104W   22186.37894080  .00001570  00000-0  11672-3 0  9996,2 49428  53.2162 139.4858 0003287  52.7673 307.3619 15.08842281 35844,6917.873000000001,95.437,542.012,537.465,0.0
49428.0,STARLINK-3121,PAYLOAD,2022-07-05 17:02:35,15.08847689,0.0003402,53.2164,137.999,55.5159,304.6154,9.1429e-05,1.167e-05,0.0,0 STARLINK-3121,1 49428U 21104W   22186.71013768  .00001167  00000-0  91429-4 0  9991,2 49428  53.2164 137.9990 0003402  55.5159 304.6154 15.08847689 35891,6917.857,95.437,542.075,537.368,0.0
49428.0,STARLINK-3121,PAYLOAD,2022-07-06 13:42:37,15.08833855,0.0003339,53.2157,134.1335,57.1023,303.029,4.4272e-05,4.16e-06,0.0,0 STARLINK-3121,1 49428U 21104W   22187.57126531  .00000416  00000-0  44272-4 0  9999,2 49428  53.2157 134.1335 0003339  57.1023 303.0290 15.08833855 37090,6917.899,95.438,542.0740000000002,537.4540000000002,0.0
49428.0,STARLINK-3121,PAYLOAD,2022-07-07 08:47:14,15.0884245,0.0003333,53.2168,130.5651,58.6565,301.4753,7.900000000000001e-05,9.69e-06,0.0,0 STARLINK-3121,1 49428U 21104W   22188.36614449  .00000969  00000-0  79000-4 0  9997,2 49428  53.2168 130.5651 0003333  58.6565 301.4753 15.08842450 36146,6917.873000000001,95.437,542.044,537.432,0.0
49428.0,STARLINK-3121,PAYLOAD,2022-07-07 19:54:56,15.08849057,0.0003333,53.2169,128.4835,59.4535,300.6786,0.00011651,1.567e-05,0.0,0 STARLINK-3121,1 49428U 21104W   22188.82981938  .00001567  00000-0  11651-3 0  9990,2 49428  53.2169 128.4835 0003333  59.4535 300.6786 15.08849057 37286,6917.853,95.437,542.023,537.4119999999998,0.0
49428.0,STARLINK-3121,PAYLOAD,2022-07-08 13:24:10,15.08848846,0.0003399,53.2154,125.2122,60.3041,299.829,0.00028841,4.306e-05,0.0,0 STARLINK-3121,1 49428U 21104W   22189.55845928  .00004306  00000-0  28841-3 0  9992,2 49428  53.2154 125.2122 0003399  60.3041 299.8290 15.08848846 36327,6917.853,95.437,542.07,537.367,0.0
49428.0,STARLINK-3121,PAYLOAD,2022-07-09 02:07:15,15.08861267,0.0003376,53.2154,122.8325,61.7603,298.3729,0.00035856,5.426e-05,0.0,0 STARLINK-3121,1 49428U 21104W   22190.08836963  .00005426  00000-0  35856-3 0  9999,2 49428  53.2154 122.8325 0003376  61.7603 298.3729 15.08861267 37479,6917.815,95.436,542.016,537.345,0.0
49428.0,STARLINK-3121,PAYLOAD,2022-07-10 05:08:49,15.08822252,0.0003095,53.216,117.7797,59.5439,300.5859,-0.00033762,-5.656e-05,0.0,0 STARLINK-3121,1 49428U 21104W   22191.21446560 -.00005656  00000-0 -33762-3 0  9996,2 49428  53.2160 117.7797 0003095  59.5439 300.5859 15.08822252 37642,6917.935,95.439,541.941,537.659,0.0
49428.0,STARLINK-3121,PAYLOAD,2022-07-10 06:44:13,15.08818363,0.00031,53.2157,117.481,59.3487,300.7811,-0.00034985,-5.849e-05,0.0,0 STARLINK-3121,1 49428U 21104W   22191.28071139 -.00005849  00000-0 -34985-3 0  9991,2 49428  53.2157 117.4810 0003100  59.3487 300.7811 15.08818363 36589,6917.946999999999,95.439,541.956,537.6669999999998,0.0
49428.0,STARLINK-3121,PAYLOAD,2022-07-11 03:24:13,15.08845381,0.0002972,53.216,113.6152,60.1403,299.9884,0.0003782,5.737e-05,0.0,0 STARLINK-3121,1 49428U 21104W   22192.14182479  .00005737  00000-0  37820-3 0  9992,2 49428  53.2160 113.6152 0002972  60.1403 299.9884 15.08845381 37786,6917.864000000001,95.437,541.785,537.673,0.0
49428.0,STARLINK-3121,PAYLOAD,2022-07-11 11:21:09,15.08857343,0.000284,53.2162,112.1286,61.8122,298.3157,0.00099342,0.00015565,0.0,0 STARLINK-3121,1 49428U 21104W   22192.47302691  .00015565  00000-0  99342-3 0  9995,2 49428  53.2162 112.1286 0002840  61.8122 298.3157 15.08857343 36764,6917.8269999999975,95.436,541.6569999999998,537.7280000000002,0.0
49428.0,STARLINK-3121,PAYLOAD,2022-07-11 20:53:28,15.08856321,0.0002576,53.2161,110.3441,58.0764,302.0478,0.0006527,0.0001012,0.0,0 STARLINK-3121,1 49428U 21104W   22192.87046597  .00010120  00000-0  65270-3 0  9994,2 49428  53.2161 110.3441 0002576  58.0764 302.0478 15.08856321 36823,6917.831,95.437,541.4780000000002,537.913,0.0
49428.0,STARLINK-3121,PAYLOAD,2022-07-12 03:15:00,15.08854949,0.0002847,53.2165,109.1561,62.9077,297.2205,0.00095842,0.00015005,0.0,0 STARLINK-3121,1 49428U 21104W   22193.13542508  .00015005  00000-0  95842-3 0  9992,2 49428  53.2165 109.1561 0002847  62.9077 297.2205 15.08854949 37938,6917.835,95.437,541.669,537.73,0.0
49428.0,STARLINK-3121,PAYLOAD,2022-07-12 11:11:56,15.08857842,0.0002439,53.2163,107.6682,59.9149,300.2085,0.00068776,0.0001068,0.0,0 STARLINK-3121,1 49428U 21104W   22193.46662185  .00010680  00000-0  68776-3 0  9992,2 49428  53.2163 107.6682 0002439  59.9149 300.2085 15.08857842 36919,6917.826,95.436,541.378,538.004,0.0
49428.0,STARLINK-3121,PAYLOAD,2022-07-12 20:44:14,15.08852042,0.0002606,53.2165,105.8844,64.0444,296.0816,0.00055691,8.589e-05,0.0,0 STARLINK-3121,1 49428U 21104W   22193.86406243  .00008589  00000-0  55691-3 0  9994,2 49428  53.2165 105.8844 0002606  64.0444 296.0816 15.08852042 36979,6917.844,95.437,541.511,537.906,0.0
49428.0,STARLINK-3121,PAYLOAD,2022-07-13 03:05:47,15.08836108,0.0002619,53.2164,104.6946,61.3082,298.8174,-8.182899999999999e-05,-1.591e-05,0.0,0 STARLINK-3121,1 49428U 21104W   22194.12902573 -.00001591  00000-0 -81829-4 0  9992,2 49428  53.2164 104.6946 0002619  61.3082 298.8174 15.08836108 38086,6917.892,95.438,541.569,537.945,0.0
49428.0,STARLINK-3121,PAYLOAD,2022-07-13 11:02:43,15.08840238,0.0002618,53.2165,103.2078,61.5838,298.5418,5.0109e-05,5.09e-06,0.0,0 STARLINK-3121,1 49428U 21104W   22194.46022571  .00000509  00000-0  50109-4 0  9993,2 49428  53.2165 103.2078 0002618  61.5838 298.5418 15.08840238 37062,6917.88,95.438,541.556,537.934,0.0
49428.0,STARLINK-3121,PAYLOAD,2022-07-14 10:53:31,15.08827221,0.0002674,53.2167,98.7471,62.3591,297.7672,-0.00011681,-2.147e-05,0.0,0 STARLINK-3121,1 49428U 21104W   22195.45383899 -.00002147  00000-0 -11681-3 0  9999,2 49428  53.2167  98.7471 0002674  62.3591 297.7672 15.08827221 38281,6917.919,95.438,541.634,537.935,0.0
49428.0,STARLINK-3121,PAYLOAD,2022-07-15 10:44:19,15.08833516,0.0002513,53.2172,94.2868,63.368,296.757,9.5375e-05,1.23e-05,0.0,0 STARLINK-3121,1 49428U 21104W   22196.44744533  .00001230  00000-0  95375-4 0  9998,2 49428  53.2172  94.2868 0002513  63.3680 296.7570 15.08833516 37368,6917.9,95.438,541.504,538.0269999999998,0.0
49428.0,STARLINK-3121,PAYLOAD,2022-07-15 20:16:37,15.08838159,0.0002483,53.2173,92.5022,64.2237,295.9011,0.00018975,2.733e-05,0.0,0 STARLINK-3121,1 49428U 21104W   22196.84488234  .00002733  00000-0  18975-3 0  9994,2 49428  53.2173  92.5022 0002483  64.2237 295.9011 15.08838159 38490,6917.886,95.438,541.469,538.033,0.0
49428.0,STARLINK-3121,PAYLOAD,2022-07-16 10:35:05,15.08858939,0.0002524,53.2164,89.8264,64.5622,295.5631,0.000643,9.965e-05,0.0,0 STARLINK-3121,1 49428U 21104W   22197.44104102  .00009965  00000-0  64300-3 0  9997,2 49428  53.2164  89.8264 0002524  64.5622 295.5631 15.08858939 38586,6917.823,95.436,541.434,537.941,0.0
49428.0,STARLINK-3121,PAYLOAD,2022-07-16 21:42:47,15.08862514,0.0002525,53.2163,87.745,64.4761,295.6492,0.0004516,6.911e-05,0.0,0 STARLINK-3121,1 49428U 21104W   22197.90471659  .00006911  00000-0  45160-3 0  9993,2 49428  53.2163  87.7450 0002525  64.4761 295.6492 15.08862514 37582,6917.812,95.436,541.423,537.93,0.0
49428.0,STARLINK-3121,PAYLOAD,2022-07-17 04:04:19,15.08867093,0.000252,53.2163,86.5554,64.3367,295.7885,0.0004354,6.653e-05,0.0,0 STARLINK-3121,1 49428U 21104W   22198.16967170  .00006653  00000-0  43540-3 0  9993,2 49428  53.2163  86.5554 0002520  64.3367 295.7885 15.08867093 38697,6917.7980000000025,95.436,541.406,537.919,0.0
49428.0,STARLINK-3121,PAYLOAD,2022-07-17 18:22:47,15.08853883,0.0002402,53.2164,83.8789,67.4528,292.6718,4.1755e-05,3.76e-06,0.0,0 STARLINK-3121,1 49428U 21104W   22198.76582974  .00000376  00000-0  41755-4 0  9997,2 49428  53.2164  83.8789 0002402  67.4528 292.6718 15.08853883 38783,6917.8380000000025,95.437,541.365,538.0409999999998,0.0
49428.0,STARLINK-3121,PAYLOAD,2022-07-17 19:58:10,15.08851569,0.0002347,53.2165,83.5815,67.6266,292.4975,-1.2909e-05,-4.94e-06,0.0,0 STARLINK-3121,1 49428U 21104W   22198.83206963 -.00000494  00000-0 -12909-4 0  9998,2 49428  53.2165  83.5815 0002347  67.6266 292.4975 15.08851569 37725,6917.845,95.437,541.3340000000002,538.086,0.0
49428.0,STARLINK-3121,PAYLOAD,2022-07-18 02:19:43,15.08845778,0.0002374,53.2165,82.3925,64.296,295.8277,-9.0698e-05,-1.732e-05,0.0,0 STARLINK-3121,1 49428U 21104W   22199.09703129 -.00001732  00000-0 -90698-4 0  9990,2 49428  53.2165  82.3925 0002374  64.2960 295.8277 15.08845778 38838,6917.863,95.437,541.37,538.085,0.0
49428.0,STARLINK-3121,PAYLOAD,2022-07-18 08:41:16,15.08832659,0.0002305,53.2164,81.2025,62.1904,297.9321,-0.00030434,-5.128e-05,0.0,0 STARLINK-3121,1 49428U 21104W   22199.36199542 -.00005128  00000-0 -30434-3 0  9992,2 49428  53.2164  81.2025 0002305  62.1904 297.9321 15.08832659 38876,6917.903,95.438,541.362,538.173,0.0
49428.0,STARLINK-3121,PAYLOAD,2022-07-18 21:24:21,15.0884011,0.0002264,53.2161,78.8232,61.5985,298.5235,-3.7089e-05,-8.79e-06,0.0,0 STARLINK-3121,1 49428U 21104W   22199.89191612 -.00000879  00000-0 -37089-4 0  9992,2 49428  53.2161  78.8232 0002264  61.5985 298.5235 15.08840110 37883,6917.88,95.438,541.311,538.179,0.0
